{
  "type": "FeatureCollection",
  "features": [
    {
      "type": "Feature",
      "geometry": {
        "type": "Point",
        "coordinates": [
          -97.0885,
          47.9272
        ]
      },
      "properties": {
        "id": "AST-01",
        "name": "Grounds & Landscaping shop",
        "type": "facility",
        "status": "ok",
        "needs_tracing": true,
        "notes": "Equipment home base. Transportation, Grounds, Bus Storage, Recycling cluster.",
        "site": "main"
      }
    },
    {
      "type": "Feature",
      "geometry": {
        "type": "Point",
        "coordinates": [
          -97.0875,
          47.9268
        ]
      },
      "properties": {
        "id": "AST-02",
        "name": "Salt / sand storage",
        "type": "material_storage",
        "status": "unknown",
        "needs_tracing": true,
        "notes": "Confirm location and capacity. WO code 010 materials.",
        "site": "main"
      }
    },
    {
      "type": "Feature",
      "geometry": {
        "type": "Point",
        "coordinates": [
          -97.0885,
          47.9272
        ]
      },
      "properties": {
        "id": "EQ-01",
        "name": "Toro 4100 D 10' (2013)",
        "type": "equipment",
        "equipment_class": "mower",
        "status": "in_service",
        "home": "Grounds shop",
        "needs_tracing": false,
        "notes": "From Major Equipment list.",
        "site": "main"
      }
    },
    {
      "type": "Feature",
      "geometry": {
        "type": "Point",
        "coordinates": [
          -97.0885,
          47.9272
        ]
      },
      "properties": {
        "id": "EQ-02",
        "name": "Toro 4100 D 10' (2016)",
        "type": "equipment",
        "equipment_class": "mower",
        "status": "in_service",
        "home": "Grounds shop",
        "needs_tracing": false,
        "notes": "",
        "site": "main"
      }
    },
    {
      "type": "Feature",
      "geometry": {
        "type": "Point",
        "coordinates": [
          -97.0885,
          47.9272
        ]
      },
      "properties": {
        "id": "EQ-03",
        "name": "Toro 4100 D 10'",
        "type": "equipment",
        "equipment_class": "mower",
        "status": "in_service",
        "home": "Grounds shop",
        "needs_tracing": false,
        "notes": "Year not recorded.",
        "site": "main"
      }
    },
    {
      "type": "Feature",
      "geometry": {
        "type": "Point",
        "coordinates": [
          -97.0885,
          47.9272
        ]
      },
      "properties": {
        "id": "EQ-04",
        "name": "Toro 4100 D 10'",
        "type": "equipment",
        "equipment_class": "mower",
        "status": "in_service",
        "home": "Grounds shop",
        "needs_tracing": false,
        "notes": "Year not recorded.",
        "site": "main"
      }
    },
    {
      "type": "Feature",
      "geometry": {
        "type": "Point",
        "coordinates": [
          -97.0885,
          47.9272
        ]
      },
      "properties": {
        "id": "EQ-05",
        "name": "Toro 3280 D 6' (2013)",
        "type": "equipment",
        "equipment_class": "mower",
        "status": "in_service",
        "home": "Grounds shop",
        "needs_tracing": false,
        "notes": "",
        "site": "main"
      }
    },
    {
      "type": "Feature",
      "geometry": {
        "type": "Point",
        "coordinates": [
          -97.0885,
          47.9272
        ]
      },
      "properties": {
        "id": "EQ-06",
        "name": "Toro 3280 D 6' (2016)",
        "type": "equipment",
        "equipment_class": "mower",
        "status": "in_service",
        "home": "Grounds shop",
        "needs_tracing": false,
        "notes": "",
        "site": "main"
      }
    },
    {
      "type": "Feature",
      "geometry": {
        "type": "Point",
        "coordinates": [
          -97.0885,
          47.9272
        ]
      },
      "properties": {
        "id": "EQ-07",
        "name": "Toro Sidewinder (2017, soccer)",
        "type": "equipment",
        "equipment_class": "mower",
        "status": "in_service",
        "home": "Grounds shop",
        "needs_tracing": false,
        "notes": "Sports fields.",
        "site": "main"
      }
    },
    {
      "type": "Feature",
      "geometry": {
        "type": "Point",
        "coordinates": [
          -97.0885,
          47.9272
        ]
      },
      "properties": {
        "id": "EQ-08",
        "name": "Toro 3200 Workman (2007)",
        "type": "equipment",
        "equipment_class": "utility",
        "status": "in_service",
        "home": "Grounds shop",
        "needs_tracing": false,
        "notes": "",
        "site": "main"
      }
    },
    {
      "type": "Feature",
      "geometry": {
        "type": "Point",
        "coordinates": [
          -97.0885,
          47.9272
        ]
      },
      "properties": {
        "id": "EQ-09",
        "name": "Toro 3200 Workman (2008)",
        "type": "equipment",
        "equipment_class": "utility",
        "status": "in_service",
        "home": "Grounds shop",
        "needs_tracing": false,
        "notes": "",
        "site": "main"
      }
    },
    {
      "type": "Feature",
      "geometry": {
        "type": "Point",
        "coordinates": [
          -97.0885,
          47.9272
        ]
      },
      "properties": {
        "id": "EQ-10",
        "name": "Toro 3200 Workman (2013)",
        "type": "equipment",
        "equipment_class": "utility",
        "status": "in_service",
        "home": "Grounds shop",
        "needs_tracing": false,
        "notes": "",
        "site": "main"
      }
    },
    {
      "type": "Feature",
      "geometry": {
        "type": "Point",
        "coordinates": [
          -97.0885,
          47.9272
        ]
      },
      "properties": {
        "id": "EQ-11",
        "name": "Gravely 5' mower (2022)",
        "type": "equipment",
        "equipment_class": "mower",
        "status": "in_service",
        "home": "Grounds shop",
        "needs_tracing": false,
        "notes": "",
        "site": "main"
      }
    },
    {
      "type": "Feature",
      "geometry": {
        "type": "Point",
        "coordinates": [
          -97.0885,
          47.9272
        ]
      },
      "properties": {
        "id": "EQ-12",
        "name": "Gravely 6' mower (2022)",
        "type": "equipment",
        "equipment_class": "mower",
        "status": "in_service",
        "home": "Grounds shop",
        "needs_tracing": false,
        "notes": "",
        "site": "main"
      }
    },
    {
      "type": "Feature",
      "geometry": {
        "type": "Point",
        "coordinates": [
          -97.0885,
          47.9272
        ]
      },
      "properties": {
        "id": "EQ-13",
        "name": "Grasshopper 360 (2018)",
        "type": "equipment",
        "equipment_class": "mower",
        "status": "in_service",
        "home": "Grounds shop",
        "needs_tracing": false,
        "notes": "",
        "site": "main"
      }
    },
    {
      "type": "Feature",
      "geometry": {
        "type": "Point",
        "coordinates": [
          -97.0885,
          47.9272
        ]
      },
      "properties": {
        "id": "EQ-14",
        "name": "Bobcat (2022) #1",
        "type": "equipment",
        "equipment_class": "loader",
        "status": "in_service",
        "home": "Grounds shop",
        "needs_tracing": false,
        "notes": "Model not recorded. Snow-capable. Record attachments.",
        "site": "main"
      }
    },
    {
      "type": "Feature",
      "geometry": {
        "type": "Point",
        "coordinates": [
          -97.0885,
          47.9272
        ]
      },
      "properties": {
        "id": "EQ-15",
        "name": "Bobcat (2022) #2",
        "type": "equipment",
        "equipment_class": "loader",
        "status": "in_service",
        "home": "Grounds shop",
        "needs_tracing": false,
        "notes": "Model not recorded.",
        "site": "main"
      }
    },
    {
      "type": "Feature",
      "geometry": {
        "type": "Point",
        "coordinates": [
          -97.0885,
          47.9272
        ]
      },
      "properties": {
        "id": "EQ-16",
        "name": "Bobcat (2022) #3",
        "type": "equipment",
        "equipment_class": "loader",
        "status": "in_service",
        "home": "Grounds shop",
        "needs_tracing": false,
        "notes": "Model not recorded.",
        "site": "main"
      }
    }
  ]
}