{"type": "FeatureCollection", "features": [{"type": "Feature", "geometry": {"type": "Polygon", "coordinates": [[[-97.083508, 47.918845], [-97.085119, 47.918847], [-97.085154, 47.918856], [-97.085215, 47.918871], [-97.085276, 47.918888], [-97.085336, 47.918904], [-97.085395, 47.918922], [-97.085455, 47.91894], [-97.085513, 47.918959], [-97.085572, 47.918979], [-97.08563, 47.918999], [-97.085687, 47.91902], [-97.085743, 47.919042], [-97.085799, 47.919064], [-97.085855, 47.919087], [-97.085909, 47.919111], [-97.085964, 47.919135], [-97.086017, 47.91916], [-97.086071, 47.919186], [-97.086122, 47.919212], [-97.086174, 47.919239], [-97.086225, 47.919266], [-97.086275, 47.919294], [-97.086325, 47.919323], [-97.086373, 47.919352], [-97.086421, 47.919381], [-97.086468, 47.919412], [-97.086515, 47.919442], [-97.08656, 47.919474], [-97.086605, 47.919506], [-97.086648, 47.919538], [-97.086691, 47.919571], [-97.086734, 47.919604], [-97.086776, 47.919638], [-97.086815, 47.919673], [-97.086855, 47.919707], [-97.086893, 47.919743], [-97.086932, 47.919779], [-97.086968, 47.919815], [-97.087003, 47.919851], [-97.087039, 47.919888], [-97.087073, 47.919926], [-97.087105, 47.919964], [-97.087137, 47.920002], [-97.087169, 47.92004], [-97.087199, 47.920079], [-97.087227, 47.920118], [-97.087255, 47.920158], [-97.087282, 47.920198], [-97.087308, 47.920238], [-97.087332, 47.920279], [-97.087356, 47.920319], [-97.087379, 47.920361], [-97.0874, 47.920402], [-97.087421, 47.920443], [-97.08744, 47.920485], [-97.087459, 47.920527], [-97.087475, 47.92057], [-97.087492, 47.920612], [-97.087507, 47.920655], [-97.087521, 47.920697], [-97.087534, 47.92074], [-97.087545, 47.920783], [-97.087555, 47.920827], [-97.087565, 47.92087], [-97.087573, 47.920913], [-97.087581, 47.920957], [-97.087587, 47.921001], [-97.087587, 47.921933], [-97.087576, 47.92189], [-97.087573, 47.921877], [-97.08757, 47.921868], [-97.087563, 47.921839], [-97.087557, 47.921815], [-97.087553, 47.921803], [-97.087545, 47.921774], [-97.087535, 47.921742], [-97.087534, 47.921738], [-97.087514, 47.921673], [-97.087492, 47.921609], [-97.087474, 47.921562], [-97.087473, 47.921558], [-97.087467, 47.921545], [-97.087442, 47.921481], [-97.087414, 47.921417], [-97.087404, 47.921394], [-97.087385, 47.921354], [-97.087354, 47.921291], [-97.08733, 47.921244], [-97.087323, 47.921229], [-97.087289, 47.921167], [-97.087253, 47.921105], [-97.087217, 47.921044], [-97.087178, 47.920983], [-97.087161, 47.920958], [-97.087137, 47.920922], [-97.087106, 47.920877], [-97.087096, 47.920863], [-97.087075, 47.920834], [-97.087052, 47.920803], [-97.087032, 47.920776], [-97.087008, 47.920744], [-97.086984, 47.920715], [-97.086961, 47.920686], [-97.086924, 47.920641], [-97.086913, 47.920628], [-97.086864, 47.920571], [-97.086836, 47.92054], [-97.086813, 47.920514], [-97.086811, 47.920513], [-97.08676, 47.920458], [-97.086711, 47.920407], [-97.086707, 47.920403], [-97.086698, 47.920394], [-97.086651, 47.920348], [-97.086595, 47.920294], [-97.086539, 47.920243], [-97.086537, 47.920241], [-97.086478, 47.920188], [-97.086417, 47.920136], [-97.086355, 47.920085], [-97.086319, 47.920056], [-97.086295, 47.920037], [-97.086291, 47.920034], [-97.086227, 47.919984], [-97.086161, 47.919935], [-97.086094, 47.919887], [-97.086025, 47.919839], [-97.085984, 47.919812], [-97.085959, 47.919796], [-97.085955, 47.919793], [-97.085918, 47.919769], [-97.0859, 47.919757], [-97.085885, 47.919747], [-97.085845, 47.919722], [-97.085819, 47.919706], [-97.085812, 47.919702], [-97.085739, 47.919658], [-97.085683, 47.919625], [-97.085665, 47.919614], [-97.085631, 47.919595], [-97.085594, 47.919575], [-97.085589, 47.919572], [-97.085577, 47.919565], [-97.085512, 47.91953], [-97.085451, 47.919498], [-97.085435, 47.91949], [-97.085385, 47.919465], [-97.08537, 47.919457], [-97.085356, 47.91945], [-97.085331, 47.919438], [-97.085276, 47.919411], [-97.08521, 47.91938], [-97.085196, 47.919374], [-97.085163, 47.919359], [-97.085114, 47.919337], [-97.085108, 47.919334], [-97.085041, 47.919305], [-97.085031, 47.919301], [-97.084994, 47.919285], [-97.08496, 47.919271], [-97.084948, 47.919266], [-97.084914, 47.919252], [-97.084871, 47.919235], [-97.084863, 47.919232], [-97.084843, 47.919224], [-97.084781, 47.9192], [-97.084778, 47.919199], [-97.084761, 47.919193], [-97.084704, 47.919172], [-97.084692, 47.919167], [-97.084626, 47.919144], [-97.084605, 47.919136], [-97.084538, 47.919113], [-97.084517, 47.919106], [-97.08447, 47.919091], [-97.08444, 47.919081], [-97.084429, 47.919077], [-97.084389, 47.919065], [-97.084354, 47.919054], [-97.08434, 47.91905], [-97.084296, 47.919037], [-97.084262, 47.919027], [-97.084249, 47.919023], [-97.084159, 47.918997], [-97.084112, 47.918984], [-97.08407, 47.918973], [-97.084067, 47.918972], [-97.084054, 47.918969], [-97.08399, 47.918953], [-97.083976, 47.918949], [-97.083922, 47.918936], [-97.0839, 47.91893], [-97.083883, 47.918926], [-97.083842, 47.918917], [-97.083799, 47.918907], [-97.08379, 47.918905], [-97.083753, 47.918897], [-97.083712, 47.918888], [-97.083696, 47.918885], [-97.083625, 47.91887], [-97.083625, 47.91887], [-97.083603, 47.918865], [-97.083508, 47.918845]]]}, "properties": {"id": "PAR-001", "name": "CITY", "owner_name": "STATE OF NORTH DAKOTA FOR THE USE", "owner_class": "und_state", "parcel": "44311705307", "address": "CITY", "land_use": "Exempt", "acres": 4.5, "legal": "UNPLATTED PARTS  ALL THAT PT OF SW1/4SW1/4 BOUNED ON THE N BY UNIVERSITY AVE, SWRLY BY BNRR", "source": "City of Grand Forks Parcel Owner Info Active", "needs_tracing": false, "site": "main", "notes": ""}}, {"type": "Feature", "geometry": {"type": "Polygon", "coordinates": [[[-97.078904, 47.917795], [-97.078898, 47.917834], [-97.077872, 47.917767], [-97.07747, 47.917734], [-97.077457, 47.917733], [-97.077445, 47.917731], [-97.077433, 47.917728], [-97.077438, 47.917125], [-97.078336, 47.917128], [-97.078338, 47.9168], [-97.07897, 47.916802], [-97.078962, 47.917798], [-97.078904, 47.917795]]]}, "properties": {"id": "PAR-002", "name": "3501 DEMERS AVE", "owner_name": "UNIVERSITY OF NORTH DAKOTA", "owner_class": "und_state", "parcel": "44281400200", "address": "3501 DEMERS AVE", "land_use": "Exempt", "acres": 2.49, "legal": "3501 DEMERS AVE LOT 2     BLK 1", "source": "City of Grand Forks Parcel Owner Info Active", "needs_tracing": false, "site": "main", "notes": ""}}, {"type": "Feature", "geometry": {"type": "Polygon", "coordinates": [[[-97.061937, 47.940344], [-97.061767, 47.940188], [-97.066338, 47.940193], [-97.066407, 47.940193], [-97.066407, 47.940339], [-97.066407, 47.940634], [-97.066338, 47.940633], [-97.064857, 47.94063], [-97.06224, 47.940624], [-97.061937, 47.940344]]]}, "properties": {"id": "PAR-003", "name": "2103 N WASHINGTON ST", "owner_name": "STATE OF NORTH DAKOTA FOR", "owner_class": "und_state", "parcel": "44311333202", "address": "2103 N WASHINGTON ST", "land_use": "Exempt", "acres": 3.96, "legal": "2103 N WASHINGTON ST UNPLATTED PARTS(33-152-50) PT SW1/4NW1/4 & PT NW1/4SW1/4", "source": "City of Grand Forks Parcel Owner Info Active", "needs_tracing": false, "site": "main", "notes": ""}}, {"type": "Feature", "geometry": {"type": "Polygon", "coordinates": [[[-97.064095, 47.939252], [-97.060759, 47.939258], [-97.059803, 47.938375], [-97.059555, 47.938151], [-97.059302, 47.93793], [-97.058925, 47.937615], [-97.059057, 47.937615], [-97.059428, 47.937614], [-97.064096, 47.937607], [-97.064095, 47.939252]]]}, "properties": {"id": "PAR-004", "name": "1851 N WASHINGTON ST", "owner_name": "STATE OF NORTH DAKOTA", "owner_class": "und_state", "parcel": "44293200300", "address": "1851 N WASHINGTON ST", "land_use": "Exempt", "acres": 14.3, "legal": "1851 N WASHINGTON ST LOT 3  BLOCK 1", "source": "City of Grand Forks Parcel Owner Info Active", "needs_tracing": false, "site": "main", "notes": ""}}, {"type": "Feature", "geometry": {"type": "Polygon", "coordinates": [[[-97.087625, 47.890952], [-97.087426, 47.890952], [-97.085881, 47.890139], [-97.085383, 47.889734], [-97.085542, 47.889734], [-97.085967, 47.89008], [-97.087625, 47.890952]]]}, "properties": {"id": "PAR-005", "name": "RURAL", "owner_name": "STATE OF NORTH DAKOTA FOR THE USE", "owner_class": "und_state", "parcel": "44240600200", "address": "RURAL", "land_use": "Exempt", "acres": 0.47, "legal": "NO ADDRESS LOT 2    BLK 1", "source": "City of Grand Forks Parcel Owner Info Active", "needs_tracing": false, "site": "main", "notes": ""}}, {"type": "Feature", "geometry": {"type": "Polygon", "coordinates": [[[-97.075946, 47.917216], [-97.075924, 47.917259], [-97.075931, 47.916414], [-97.075963, 47.916464], [-97.075987, 47.916504], [-97.076009, 47.916543], [-97.076031, 47.916582], [-97.076051, 47.916622], [-97.076071, 47.916662], [-97.076073, 47.916666], [-97.076089, 47.916703], [-97.076107, 47.916743], [-97.076123, 47.916784], [-97.076139, 47.916825], [-97.076153, 47.916866], [-97.076166, 47.916907], [-97.076178, 47.916948], [-97.076189, 47.91699], [-97.076199, 47.917032], [-97.076208, 47.917073], [-97.076216, 47.917115], [-97.076222, 47.917157], [-97.076228, 47.917199], [-97.076233, 47.917241], [-97.076236, 47.917283], [-97.075946, 47.917216]]]}, "properties": {"id": "PAR-006", "name": "3349 DEMERS AVE", "owner_name": "STATE OF NORTH DAKOTA FOR THE USE &", "owner_class": "und_state", "parcel": "44123200400", "address": "3349 DEMERS AVE", "land_use": "Exempt", "acres": 0.33, "legal": "3349 DEMERS AVE LOT 4   BLK 1", "source": "City of Grand Forks Parcel Owner Info Active", "needs_tracing": false, "site": "main", "notes": ""}}, {"type": "Feature", "geometry": {"type": "Polygon", "coordinates": [[[-97.059104, 47.918656], [-97.059553, 47.918656], [-97.059551, 47.919007], [-97.059103, 47.919006], [-97.059104, 47.918656]]]}, "properties": {"id": "PAR-007", "name": "2219 DYKE AVE", "owner_name": "NORTH DAKOTA STATE BOARD OF HIGHER", "owner_class": "und_state", "parcel": "44140112901", "address": "2219 DYKE AVE", "land_use": "Exempt", "acres": 0.32, "legal": "2219 DYKE AVE L 10 & 11               B8", "source": "City of Grand Forks Parcel Owner Info Active", "needs_tracing": false, "site": "main", "notes": ""}}, {"type": "Feature", "geometry": {"type": "Polygon", "coordinates": [[[-97.059549, 47.91961], [-97.057265, 47.919607], [-97.057267, 47.919224], [-97.05955, 47.919226], [-97.059549, 47.91961]]]}, "properties": {"id": "PAR-008", "name": "DYKE AVE", "owner_name": "NORTH DAKOTA STATE BOARD OF HIGHER", "owner_class": "und_state", "parcel": "44140110900", "address": "DYKE AVE", "land_use": "Exempt", "acres": 1.8, "legal": "DYKE AVE. LOTS 12-22 INCLUSIVE         B 7", "source": "City of Grand Forks Parcel Owner Info Active", "needs_tracing": false, "site": "main", "notes": ""}}, {"type": "Feature", "geometry": {"type": "Polygon", "coordinates": [[[-97.09564, 47.920208], [-97.094506, 47.920209], [-97.094505, 47.918798], [-97.096703, 47.918802], [-97.096703, 47.920079], [-97.096107, 47.920037], [-97.09609, 47.920036], [-97.096074, 47.920036], [-97.096058, 47.920035], [-97.096041, 47.920036], [-97.096025, 47.920036], [-97.096009, 47.920037], [-97.095993, 47.920039], [-97.095976, 47.92004], [-97.09596, 47.920042], [-97.095944, 47.920045], [-97.095929, 47.920048], [-97.095913, 47.920051], [-97.095897, 47.920055], [-97.095882, 47.920058], [-97.095867, 47.920063], [-97.095852, 47.920067], [-97.095838, 47.920072], [-97.095823, 47.920078], [-97.095809, 47.920083], [-97.095796, 47.920089], [-97.095782, 47.920096], [-97.095769, 47.920102], [-97.095756, 47.920109], [-97.095744, 47.920117], [-97.095732, 47.920124], [-97.095721, 47.920132], [-97.095709, 47.92014], [-97.095699, 47.920148], [-97.095688, 47.920157], [-97.095679, 47.920166], [-97.095669, 47.920175], [-97.09566, 47.920184], [-97.095652, 47.920193], [-97.09564, 47.920208]]]}, "properties": {"id": "PAR-009", "name": "4704 TECHNOLOGY CIR", "owner_name": "UND AEROSPACE FOUNDATION", "owner_class": "aerospace_foundation", "parcel": "44311100400", "address": "4704 TECHNOLOGY CIR", "land_use": "Exempt", "acres": 6.05, "legal": "4704 TECHNOLOGY CIRCLE LOT 4                   B 1", "source": "City of Grand Forks Parcel Owner Info Active", "needs_tracing": false, "site": "main", "notes": ""}}, {"type": "Feature", "geometry": {"type": "Polygon", "coordinates": [[[-97.059543, 47.92109], [-97.059298, 47.92109], [-97.0593, 47.920706], [-97.059544, 47.920706], [-97.059543, 47.92109]]]}, "properties": {"id": "PAR-010", "name": "2221 2ND AVE N", "owner_name": "UND DUPLEX, LLC", "owner_class": "und_state", "parcel": "44140108600", "address": "2221 2ND AVE N", "land_use": "Residential", "acres": 0.19, "legal": "2221 2ND AVE N LOT 11                 B 6", "source": "City of Grand Forks Parcel Owner Info Active", "needs_tracing": false, "site": "main", "notes": ""}}, {"type": "Feature", "geometry": {"type": "Polygon", "coordinates": [[[-97.066569, 47.922089], [-97.066564, 47.921212], [-97.066516, 47.921212], [-97.066501, 47.918741], [-97.069961, 47.918749], [-97.069961, 47.918749], [-97.070005, 47.918749], [-97.07001, 47.918749], [-97.070516, 47.91875], [-97.07203, 47.918754], [-97.072105, 47.918754], [-97.072105, 47.918754], [-97.076068, 47.918763], [-97.076138, 47.918763], [-97.076852, 47.918765], [-97.07713, 47.918765], [-97.077264, 47.918766], [-97.077264, 47.918766], [-97.077265, 47.918811], [-97.077265, 47.918834], [-97.077282, 47.922143], [-97.077125, 47.922143], [-97.07555, 47.922142], [-97.067542, 47.922137], [-97.067075, 47.922131], [-97.066676, 47.922131], [-97.066569, 47.922089]]]}, "properties": {"id": "PAR-011", "name": "UND CAMPUS", "owner_name": "UNIVERSITY OF NORTH DAKOTA", "owner_class": "und_state", "parcel": "44311705402", "address": "UND CAMPUS", "land_use": "Exempt", "acres": 74.73, "legal": "UND CAMPUS UNPLATTED PARTS S1/2SE1/4 5-151-50 LESS RR R/W", "source": "City of Grand Forks Parcel Owner Info Active", "needs_tracing": false, "site": "main", "notes": ""}}, {"type": "Feature", "geometry": {"type": "Polygon", "coordinates": [[[-97.062462, 47.922135], [-97.062238, 47.922135], [-97.06224, 47.921751], [-97.062464, 47.921751], [-97.062462, 47.922135]]]}, "properties": {"id": "PAR-012", "name": "2423 UNIVERSITY AVE", "owner_name": "NORTH DAKOTA STATE BOARD OF HIGHER", "owner_class": "und_state", "parcel": "44310201300", "address": "2423 UNIVERSITY AVE", "land_use": "Exempt", "acres": 0.18, "legal": "2423 UNIVERSITY AVE LOT 13                       B01", "source": "City of Grand Forks Parcel Owner Info Active", "needs_tracing": false, "site": "main", "notes": ""}}, {"type": "Feature", "geometry": {"type": "Polygon", "coordinates": [[[-97.076284, 47.922875], [-97.076304, 47.923121], [-97.076284, 47.923121], [-97.07555, 47.923121], [-97.07555, 47.922874], [-97.075549, 47.922674], [-97.076255, 47.922675], [-97.076255, 47.922875], [-97.076284, 47.922875], [-97.076284, 47.922875]]]}, "properties": {"id": "PAR-013", "name": "315 PRINCETON ST", "owner_name": "NORTH DAKOTA STATE BOARD OF HIGHER", "owner_class": "und_state", "parcel": "44310411803", "address": "315 PRINCETON ST", "land_use": "Exempt", "acres": 1.17, "legal": "315 PRINCETON ST S90' OF LOT 6 LESS REAR PT    BLK 13 LYING WRLY OF LINE FROM A", "source": "City of Grand Forks Parcel Owner Info Active", "needs_tracing": false, "site": "main", "notes": ""}}, {"type": "Feature", "geometry": {"type": "Polygon", "coordinates": [[[-97.070523, 47.922797], [-97.070274, 47.922797], [-97.070272, 47.922413], [-97.070521, 47.922413], [-97.070523, 47.922797]]]}, "properties": {"id": "PAR-014", "name": "2924 UNIVERSITY AVE", "owner_name": "UNIVERSITY OF ND", "owner_class": "und_state", "parcel": "44310403500", "address": "2924 UNIVERSITY AVE", "land_use": "Exempt", "acres": 0.2, "legal": "2924 UNIV AVE. LOT 14, 61 X 140'            B03", "source": "City of Grand Forks Parcel Owner Info Active", "needs_tracing": false, "site": "main", "notes": ""}}, {"type": "Feature", "geometry": {"type": "Polygon", "coordinates": [[[-97.067329, 47.922411], [-97.067332, 47.922795], [-97.067143, 47.922794], [-97.067073, 47.922794], [-97.066771, 47.922794], [-97.066769, 47.92241], [-97.067074, 47.922411], [-97.067143, 47.922411], [-97.067329, 47.922411]]]}, "properties": {"id": "PAR-015", "name": "2700 UNIVERSITY AVE", "owner_name": "DELTA TAU DELTA ALUMNI OF ND", "owner_class": "greek", "parcel": "44310400402", "address": "2700 UNIVERSITY AVE", "land_use": "Exempt", "acres": 0.44, "legal": "2700 UNIVERSITY AVE. L11,12&E1/2L13 B1(SEE#44-4000- 140-00)", "source": "City of Grand Forks Parcel Owner Info Active", "needs_tracing": false, "site": "main", "notes": ""}}, {"type": "Feature", "geometry": {"type": "Polygon", "coordinates": [[[-97.071173, 47.922414], [-97.071427, 47.922414], [-97.071581, 47.922414], [-97.071584, 47.922825], [-97.071176, 47.922825], [-97.071173, 47.922414]]]}, "properties": {"id": "PAR-016", "name": "3012 UNIVERSITY AVE", "owner_name": "UNIVERSITY OF NORTH DAKOTA,", "owner_class": "und_state", "parcel": "44310410000", "address": "3012 UNIVERSITY AVE", "land_use": "Commercial", "acres": 0.34, "legal": "3012 UNIV AVE. LOT 2, 100 X 150'            B11", "source": "City of Grand Forks Parcel Owner Info Active", "needs_tracing": false, "site": "main", "notes": ""}}, {"type": "Feature", "geometry": {"type": "Polygon", "coordinates": [[[-97.070524, 47.923175], [-97.069974, 47.923175], [-97.069973, 47.923007], [-97.070524, 47.923008], [-97.070524, 47.923175]]]}, "properties": {"id": "PAR-017", "name": "316 CAMBRIDGE ST", "owner_name": "NORTH DAKOTA STATE BOARD OF HIGHER", "owner_class": "und_state", "parcel": "44310403700", "address": "316 CAMBRIDGE ST", "land_use": "Exempt", "acres": 0.19, "legal": "316 CAMBRIDGE ST. LOT A                        B03 (REPLAT LOTS 16,17&18)", "source": "City of Grand Forks Parcel Owner Info Active", "needs_tracing": false, "site": "main", "notes": ""}}, {"type": "Feature", "geometry": {"type": "Polygon", "coordinates": [[[-97.07132, 47.923236], [-97.070769, 47.923236], [-97.070769, 47.923057], [-97.07132, 47.923058], [-97.07132, 47.923236]]]}, "properties": {"id": "PAR-018", "name": "317 CAMBRIDGE ST", "owner_name": "NORTH DAKOTA STATE BOARD OF HIGHER", "owner_class": "und_state", "parcel": "44310410800", "address": "317 CAMBRIDGE ST", "land_use": "Exempt", "acres": 0.2, "legal": "317 CAMBRIDGE ST. A PARCEL, COMMENCING 85' NORTH OF NORTHEAST CORNER OF LOT 1,B11", "source": "City of Grand Forks Parcel Owner Info Active", "needs_tracing": false, "site": "main", "notes": ""}}, {"type": "Feature", "geometry": {"type": "Polygon", "coordinates": [[[-97.077286, 47.923391], [-97.07555, 47.92339], [-97.07555, 47.923231], [-97.077285, 47.923232], [-97.077286, 47.923391]]]}, "properties": {"id": "PAR-019", "name": "325 PRINCETON ST", "owner_name": "NORTH DAKOTA STATE BOARD OF HIGHER", "owner_class": "und_state", "parcel": "44310411600", "address": "325 PRINCETON ST", "land_use": "Exempt", "acres": 0.57, "legal": "325 PRINCETON ST. REPLAT OF L5 & THE N8' OF L6 MCVEY'S RESUB OF PT B13,L A  B13", "source": "City of Grand Forks Parcel Owner Info Active", "needs_tracing": false, "site": "main", "notes": ""}}, {"type": "Feature", "geometry": {"type": "Polygon", "coordinates": [[[-97.071321, 47.923798], [-97.07077, 47.923798], [-97.07077, 47.923619], [-97.071321, 47.92362], [-97.071321, 47.923798]]]}, "properties": {"id": "PAR-020", "name": "405 CAMBRIDGE ST", "owner_name": "NORTH DAKOTA STATE BOARD OF HIGHER", "owner_class": "und_state", "parcel": "44310410300", "address": "405 CAMBRIDGE ST", "land_use": "Exempt", "acres": 0.2, "legal": "405 CAMBRIDGE ST. A PARCEL COM AT A POINT ON THE E LINE OF BLK 11 152' S OF NEB11", "source": "City of Grand Forks Parcel Owner Info Active", "needs_tracing": false, "site": "main", "notes": ""}}, {"type": "Feature", "geometry": {"type": "Polygon", "coordinates": [[[-97.071321, 47.924009], [-97.070771, 47.924009], [-97.07077, 47.923798], [-97.071321, 47.923798], [-97.071321, 47.924009]]]}, "properties": {"id": "PAR-021", "name": "407 CAMBRIDGE ST", "owner_name": "STATE OF NORTH DAKOTA", "owner_class": "und_state", "parcel": "44310410400", "address": "407 CAMBRIDGE ST", "land_use": "Commercial", "acres": 0.24, "legal": "407 CAMBRIDGE ST. A PARCEL COMMENCING AT A POINT ON THE EAST LINE OF BLK 11 75'", "source": "City of Grand Forks Parcel Owner Info Active", "needs_tracing": false, "site": "main", "notes": ""}}, {"type": "Feature", "geometry": {"type": "Polygon", "coordinates": [[[-97.069112, 47.924942], [-97.068561, 47.924942], [-97.068561, 47.924805], [-97.069112, 47.924805], [-97.069112, 47.924942]]]}, "properties": {"id": "PAR-022", "name": "516 HAMLINE ST", "owner_name": "NORTH DAKOTA STATE BOARD OF HIGHER", "owner_class": "und_state", "parcel": "44310404500", "address": "516 HAMLINE ST", "land_use": "Exempt", "acres": 0.15, "legal": "516 HAMLINE ST. LOT 13, 50 X 135'            B05", "source": "City of Grand Forks Parcel Owner Info Active", "needs_tracing": false, "site": "main", "notes": ""}}, {"type": "Feature", "geometry": {"type": "Polygon", "coordinates": [[[-97.069112, 47.925079], [-97.068562, 47.925079], [-97.068561, 47.924942], [-97.069112, 47.924942], [-97.069112, 47.925079]]]}, "properties": {"id": "PAR-023", "name": "HAMLINE ST", "owner_name": "UNIVERSITY OF ND", "owner_class": "und_state", "parcel": "44310404600", "address": "HAMLINE ST", "land_use": "Exempt", "acres": 0.15, "legal": "HAMLINE ST. LOT 14, 50 X 135'            B05", "source": "City of Grand Forks Parcel Owner Info Active", "needs_tracing": false, "site": "main", "notes": ""}}, {"type": "Feature", "geometry": {"type": "Polygon", "coordinates": [[[-97.066761, 47.923156], [-97.067075, 47.923156], [-97.067145, 47.923156], [-97.067695, 47.923157], [-97.067818, 47.923157], [-97.06794, 47.923157], [-97.068491, 47.923157], [-97.068491, 47.924213], [-97.068492, 47.924394], [-97.068493, 47.92549], [-97.06837, 47.92549], [-97.06837, 47.925627], [-97.066777, 47.925626], [-97.066761, 47.923156]]]}, "properties": {"id": "PAR-024", "name": "501 COLUMBIA RD", "owner_name": "STATE OF NORTH DAKOTA HIGHER ED BOARD", "owner_class": "und_state", "parcel": "44310400300", "address": "501 COLUMBIA RD", "land_use": "Exempt", "acres": 8.7, "legal": "501 COLUMBIA RD L3  & VACATED CORNELL ST   B A LESS ROADWAY & UTILITY", "source": "City of Grand Forks Parcel Owner Info Active", "needs_tracing": false, "site": "main", "notes": ""}}, {"type": "Feature", "geometry": {"type": "Polygon", "coordinates": [[[-97.097893, 47.920186], [-97.097864, 47.92018], [-97.097834, 47.920174], [-97.097805, 47.920169], [-97.097775, 47.920164], [-97.097745, 47.920159], [-97.097715, 47.920155], [-97.097685, 47.920151], [-97.097655, 47.920148], [-97.097625, 47.920144], [-97.097595, 47.920142], [-97.097564, 47.920139], [-97.097549, 47.920138], [-97.096703, 47.920079], [-97.096703, 47.918802], [-97.097897, 47.918805], [-97.097893, 47.920186]]]}, "properties": {"id": "PAR-025", "name": "4764 TECHNOLOGY CIR", "owner_name": "UND AEROSPACE FOUNDATION", "owner_class": "aerospace_foundation", "parcel": "44311100501", "address": "4764 TECHNOLOGY CIR", "land_use": "Exempt", "acres": 3.23, "legal": "4764 TECHNOLOGY CIRCLE LOT D (REPLAT L5) BLK 1", "source": "City of Grand Forks Parcel Owner Info Active", "needs_tracing": false, "site": "main", "notes": ""}}, {"type": "Feature", "geometry": {"type": "Polygon", "coordinates": [[[-97.07281, 47.918626], [-97.072814, 47.918626], [-97.072819, 47.918625], [-97.072823, 47.918625], [-97.072847, 47.918622], [-97.072872, 47.91862], [-97.072896, 47.918619], [-97.073012, 47.918619], [-97.073216, 47.918619], [-97.076068, 47.918626], [-97.076068, 47.918763], [-97.076068, 47.918763], [-97.072105, 47.918754], [-97.072105, 47.918754], [-97.072105, 47.918754], [-97.072146, 47.918748], [-97.072186, 47.918741], [-97.072226, 47.918734], [-97.072739, 47.918638], [-97.072763, 47.918634], [-97.072787, 47.91863], [-97.07281, 47.918626]]]}, "properties": {"id": "PAR-026", "name": "UNPLATTED", "owner_name": "NORTH DAKOTA STATE BOARD OF HIGHER", "owner_class": "und_state", "parcel": "44311705404", "address": "UNPLATTED", "land_use": "Exempt", "acres": 1.14, "legal": "UNPLATTED GF TWP A TRACT IN S1/2SW1/4SE1/4 BEGINNING 85'N & 290'E OF SW", "source": "City of Grand Forks Parcel Owner Info Active", "needs_tracing": false, "site": "main", "notes": ""}}, {"type": "Feature", "geometry": {"type": "Polygon", "coordinates": [[[-97.0665, 47.918613], [-97.069961, 47.918621], [-97.069961, 47.918723], [-97.069961, 47.918749], [-97.066501, 47.918741], [-97.0665, 47.918613]]]}, "properties": {"id": "PAR-027", "name": "UNPLATTED", "owner_name": "NORTH DAKOTA STATE BOARD OF HIGHER", "owner_class": "und_state", "parcel": "44311705403", "address": "UNPLATTED", "land_use": "Exempt", "acres": 0.91, "legal": "UNPLATTED PARTS-GF TWP A TRACT IN S1/2SE1/4SE1/4 BEGINNING 85'N & 33'W OF SE CORNER OF SEC 5", "source": "City of Grand Forks Parcel Owner Info Active", "needs_tracing": false, "site": "main", "notes": ""}}, {"type": "Feature", "geometry": {"type": "Polygon", "coordinates": [[[-97.077803, 47.816613], [-97.077807, 47.817336], [-97.077135, 47.817337], [-97.077135, 47.816614], [-97.077803, 47.816613]]]}, "properties": {"id": "PAR-028", "name": "RURAL", "owner_name": "STATE OF NORTH DAKOTA FOR", "owner_class": "und_state", "parcel": "39170100200", "address": "RURAL", "land_use": null, "acres": 1.0, "legal": "PT NE1/4,17-150-50", "source": "City of Grand Forks Parcel Owner Info Active", "needs_tracing": false, "site": "main", "notes": ""}}, {"type": "Feature", "geometry": {"type": "Polygon", "coordinates": [[[-97.057981, 47.942645], [-97.05817, 47.942645], [-97.058427, 47.942939], [-97.05844, 47.942988], [-97.058452, 47.943067], [-97.058515, 47.943202], [-97.058581, 47.943299], [-97.058514, 47.943317], [-97.057981, 47.942645]]]}, "properties": {"id": "PAR-029", "name": "UNPLATTED", "owner_name": "STATE OF NORTH DAKOTA ACTING", "owner_class": "und_state", "parcel": "44311333210", "address": "UNPLATTED", "land_use": "Exempt", "acres": 0.22, "legal": "UNPLATTED PARTS-FALCONER TWSHP A TRACT APPROX 9190 SQ' (DOC#656633) 33-152-50", "source": "City of Grand Forks Parcel Owner Info Active", "needs_tracing": false, "site": "main", "notes": ""}}, {"type": "Feature", "geometry": {"type": "Polygon", "coordinates": [[[-97.056946, 47.937605], [-97.055761, 47.937596], [-97.055762, 47.937488], [-97.055846, 47.937493], [-97.055936, 47.937496], [-97.05615, 47.937497], [-97.056276, 47.937497], [-97.05641, 47.937503], [-97.05653, 47.937515], [-97.056658, 47.937534], [-97.056777, 47.937559], [-97.056855, 47.937578], [-97.056946, 47.937605]]]}, "properties": {"id": "PAR-030", "name": "1890 N WASHINGTON ST", "owner_name": "STATE OF NORTH DAKOTA DBA**", "owner_class": "und_state", "parcel": "44124100300", "address": "1890 N WASHINGTON ST", "land_use": "Exempt", "acres": 0.0, "legal": "1890 N WASHINGTON ST LOT 1       BLK 2", "source": "City of Grand Forks Parcel Owner Info Active", "needs_tracing": false, "site": "main", "notes": ""}}, {"type": "Feature", "geometry": {"type": "Polygon", "coordinates": [[[-97.069602, 47.922796], [-97.069353, 47.922796], [-97.06935, 47.922412], [-97.069599, 47.922412], [-97.069905, 47.922413], [-97.069907, 47.922796], [-97.069602, 47.922796]]]}, "properties": {"id": "PAR-031", "name": "2908 UNIVERSITY AVE", "owner_name": "NORTH DAKOTA STATE BOARD OF HIGHER", "owner_class": "und_state", "parcel": "44310403201", "address": "2908 UNIVERSITY AVE", "land_use": "Exempt", "acres": 0.44, "legal": "2908 UNIVERSITY AVE LOTS 10,11 & E35' OF 12     BLK 3", "source": "City of Grand Forks Parcel Owner Info Active", "needs_tracing": false, "site": "main", "notes": ""}}, {"type": "Feature", "geometry": {"type": "Polygon", "coordinates": [[[-97.066338, 47.940193], [-97.061767, 47.940188], [-97.060759, 47.939258], [-97.064095, 47.939252], [-97.066205, 47.939248], [-97.066212, 47.939259], [-97.066222, 47.939274], [-97.066232, 47.93929], [-97.066241, 47.939306], [-97.06625, 47.939322], [-97.066259, 47.939339], [-97.066267, 47.939355], [-97.066275, 47.939371], [-97.066282, 47.939388], [-97.066289, 47.939404], [-97.066295, 47.939421], [-97.066301, 47.939438], [-97.066307, 47.939455], [-97.066312, 47.939471], [-97.066316, 47.939488], [-97.066321, 47.939505], [-97.066324, 47.939522], [-97.066328, 47.939539], [-97.066331, 47.939556], [-97.066333, 47.939573], [-97.066335, 47.939591], [-97.066336, 47.939608], [-97.066338, 47.939625], [-97.066338, 47.939642], [-97.066338, 47.939659], [-97.066338, 47.940193]]]}, "properties": {"id": "PAR-032", "name": "1951 N WASHINGTON ST", "owner_name": "STATE OF NORTH DAKOTA FOR THE USE", "owner_class": "und_state", "parcel": "44293200100", "address": "1951 N WASHINGTON ST", "land_use": "Exempt", "acres": 9.73, "legal": "1951 N WASHINGTON ST LOT 1    BLOCK 1", "source": "City of Grand Forks Parcel Owner Info Active", "needs_tracing": false, "site": "main", "notes": ""}}, {"type": "Feature", "geometry": {"type": "Polygon", "coordinates": [[[-97.061724, 47.911795], [-97.061526, 47.911763], [-97.061438, 47.91175], [-97.061451, 47.91135], [-97.061777, 47.91135], [-97.061754, 47.911542], [-97.061734, 47.911709], [-97.061724, 47.911795]]]}, "properties": {"id": "PAR-033", "name": "2210 11TH AVE S", "owner_name": "BRONSON, JASON", "owner_class": "bronson", "parcel": "44330730300", "address": "2210 11TH AVE S", "land_use": "Residential", "acres": 0.27, "legal": "2210 11TH AVE S LOT 6                  B16", "source": "City of Grand Forks Parcel Owner Info Active", "needs_tracing": false, "site": "main", "notes": ""}}, {"type": "Feature", "geometry": {"type": "Polygon", "coordinates": [[[-97.098795, 47.921374], [-97.097318, 47.921373], [-97.097314, 47.920349], [-97.097347, 47.920349], [-97.097372, 47.920349], [-97.097396, 47.920349], [-97.097421, 47.920349], [-97.097446, 47.92035], [-97.097471, 47.920351], [-97.097496, 47.920353], [-97.097521, 47.920354], [-97.097545, 47.920356], [-97.09757, 47.920359], [-97.097595, 47.920361], [-97.097619, 47.920364], [-97.097644, 47.920367], [-97.097668, 47.92037], [-97.097693, 47.920374], [-97.097717, 47.920378], [-97.097741, 47.920382], [-97.097765, 47.920387], [-97.097789, 47.920392], [-97.097812, 47.920397], [-97.097836, 47.920402], [-97.097859, 47.920408], [-97.097883, 47.920414], [-97.097906, 47.92042], [-97.097929, 47.920426], [-97.097952, 47.920433], [-97.097974, 47.92044], [-97.097997, 47.920447], [-97.098019, 47.920455], [-97.098041, 47.920462], [-97.098063, 47.92047], [-97.098085, 47.920479], [-97.098106, 47.920487], [-97.098127, 47.920496], [-97.098148, 47.920505], [-97.098169, 47.920514], [-97.09819, 47.920524], [-97.09821, 47.920534], [-97.09823, 47.920544], [-97.098249, 47.920554], [-97.098269, 47.920564], [-97.098288, 47.920575], [-97.098307, 47.920586], [-97.098326, 47.920597], [-97.098344, 47.920608], [-97.098362, 47.92062], [-97.09838, 47.920632], [-97.098397, 47.920644], [-97.098414, 47.920656], [-97.098431, 47.920668], [-97.098447, 47.920681], [-97.098464, 47.920694], [-97.098479, 47.920707], [-97.098495, 47.92072], [-97.09851, 47.920733], [-97.098525, 47.920747], [-97.098539, 47.92076], [-97.098553, 47.920774], [-97.098567, 47.920788], [-97.09858, 47.920802], [-97.098593, 47.920816], [-97.098606, 47.920831], [-97.098618, 47.920845], [-97.09863, 47.92086], [-97.098641, 47.920875], [-97.098652, 47.92089], [-97.098663, 47.920905], [-97.098673, 47.92092], [-97.098683, 47.920936], [-97.098692, 47.920951], [-97.098701, 47.920967], [-97.09871, 47.920983], [-97.098718, 47.920998], [-97.098726, 47.921014], [-97.098734, 47.92103], [-97.098741, 47.921046], [-97.098747, 47.921063], [-97.098753, 47.921079], [-97.098759, 47.921095], [-97.098764, 47.921111], [-97.098769, 47.921128], [-97.098774, 47.921144], [-97.098778, 47.921161], [-97.098781, 47.921177], [-97.098785, 47.921194], [-97.098787, 47.921211], [-97.09879, 47.921227], [-97.098792, 47.921244], [-97.098793, 47.921261], [-97.098794, 47.921277], [-97.098795, 47.921294], [-97.098795, 47.921311], [-97.098795, 47.921374]]]}, "properties": {"id": "PAR-034", "name": "4775 TECHNOLOGY CIR", "owner_name": "UND AEROSPACE FOUNDATION", "owner_class": "aerospace_foundation", "parcel": "44311100102", "address": "4775 TECHNOLOGY CIR", "land_use": "Exempt", "acres": 2.51, "legal": "4775 TECHNOLOGY CIRCLE LOT B, REPLAT OF L1     B 1", "source": "City of Grand Forks Parcel Owner Info Active", "needs_tracing": false, "site": "main", "notes": ""}}, {"type": "Feature", "geometry": {"type": "Polygon", "coordinates": [[[-97.096178, 47.921777], [-97.094343, 47.921778], [-97.094343, 47.921179], [-97.094506, 47.921179], [-97.094506, 47.920209], [-97.09564, 47.920208], [-97.095633, 47.920218], [-97.095626, 47.920228], [-97.09562, 47.920239], [-97.095614, 47.920249], [-97.095609, 47.920259], [-97.095605, 47.92027], [-97.095601, 47.920281], [-97.095598, 47.920292], [-97.095595, 47.920302], [-97.095593, 47.920313], [-97.095591, 47.920324], [-97.09559, 47.920335], [-97.095589, 47.920346], [-97.095589, 47.920357], [-97.09559, 47.920368], [-97.095591, 47.920379], [-97.095593, 47.92039], [-97.095595, 47.920401], [-97.095598, 47.920412], [-97.095602, 47.920423], [-97.095606, 47.920433], [-97.09561, 47.920444], [-97.095615, 47.920454], [-97.095621, 47.920465], [-97.095627, 47.920475], [-97.095634, 47.920485], [-97.095641, 47.920495], [-97.095649, 47.920504], [-97.095657, 47.920514], [-97.095666, 47.920523], [-97.095675, 47.920532], [-97.095685, 47.920541], [-97.095695, 47.92055], [-97.095705, 47.920558], [-97.095716, 47.920566], [-97.095728, 47.920574], [-97.09574, 47.920582], [-97.095752, 47.920589], [-97.095764, 47.920596], [-97.095777, 47.920603], [-97.095791, 47.920609], [-97.095804, 47.920616], [-97.095818, 47.920621], [-97.095832, 47.920627], [-97.095847, 47.920632], [-97.095861, 47.920637], [-97.095876, 47.920641], [-97.095892, 47.920645], [-97.095907, 47.920649], [-97.095923, 47.920652], [-97.095938, 47.920655], [-97.095954, 47.920658], [-97.09597, 47.92066], [-97.095986, 47.920662], [-97.096003, 47.920664], [-97.096019, 47.920665], [-97.096035, 47.920665], [-97.096052, 47.920666], [-97.096068, 47.920666], [-97.096084, 47.920665], [-97.096101, 47.920665], [-97.096117, 47.920663], [-97.096133, 47.920662], [-97.096149, 47.92066], [-97.096173, 47.920656], [-97.096178, 47.921777]]]}, "properties": {"id": "PAR-035", "name": "4703 TECHNOLOGY CIR", "owner_name": "UND AEROSPACE FOUNDATION", "owner_class": "aerospace_foundation", "parcel": "44311100300", "address": "4703 TECHNOLOGY CIR", "land_use": "Exempt", "acres": 5.1, "legal": "4703 TECHNOLOGY CIRCLE LOT 3                   B 1", "source": "City of Grand Forks Parcel Owner Info Active", "needs_tracing": false, "site": "main", "notes": ""}}, {"type": "Feature", "geometry": {"type": "Polygon", "coordinates": [[[-97.096178, 47.921777], [-97.096173, 47.920656], [-97.096189, 47.920653], [-97.096205, 47.92065], [-97.09622, 47.920646], [-97.096235, 47.920642], [-97.09625, 47.920638], [-97.096265, 47.920633], [-97.09628, 47.920628], [-97.096298, 47.920621], [-97.096635, 47.920485], [-97.096672, 47.920471], [-97.096694, 47.920463], [-97.096716, 47.920455], [-97.096738, 47.920448], [-97.096761, 47.92044], [-97.096783, 47.920433], [-97.096806, 47.920427], [-97.096829, 47.92042], [-97.096852, 47.920414], [-97.096876, 47.920408], [-97.096899, 47.920402], [-97.096923, 47.920397], [-97.096946, 47.920392], [-97.09697, 47.920387], [-97.096994, 47.920382], [-97.097018, 47.920378], [-97.097042, 47.920374], [-97.097067, 47.920371], [-97.097091, 47.920367], [-97.097116, 47.920364], [-97.09714, 47.920361], [-97.097165, 47.920359], [-97.097189, 47.920356], [-97.097214, 47.920354], [-97.097239, 47.920353], [-97.097264, 47.920351], [-97.097289, 47.92035], [-97.097314, 47.920349], [-97.097318, 47.921373], [-97.097321, 47.921986], [-97.097085, 47.921985], [-97.096177, 47.921983], [-97.096178, 47.921777]]]}, "properties": {"id": "PAR-036", "name": "4749 TECHNOLOGY CIR", "owner_name": "UND AEROSPACE FOUNDATION", "owner_class": "aerospace_foundation", "parcel": "44311100200", "address": "4749 TECHNOLOGY CIR", "land_use": "Exempt", "acres": 3.55, "legal": "4749 TECHNOLOGY CIRCLE LOT 2                   B 1", "source": "City of Grand Forks Parcel Owner Info Active", "needs_tracing": false, "site": "main", "notes": ""}}, {"type": "Feature", "geometry": {"type": "Polygon", "coordinates": [[[-97.071995, 47.924766], [-97.07171, 47.924766], [-97.071709, 47.924396], [-97.071995, 47.924396], [-97.071995, 47.924766]]]}, "properties": {"id": "PAR-037", "name": "506 HARVARD ST", "owner_name": "STATE OF NORTH DAKOTA FOR USE AND", "owner_class": "und_state", "parcel": "44310407001", "address": "506 HARVARD ST", "land_use": "Exempt", "acres": 0.22, "legal": "506 HARVARD ST. L A B7 REPLAT OF L10,11&S35'L12", "source": "City of Grand Forks Parcel Owner Info Active", "needs_tracing": false, "site": "main", "notes": ""}}, {"type": "Feature", "geometry": {"type": "Polygon", "coordinates": [[[-97.098958, 47.920814], [-97.098945, 47.920796], [-97.098931, 47.920777], [-97.098917, 47.920759], [-97.098903, 47.920741], [-97.098888, 47.920723], [-97.098872, 47.920705], [-97.098856, 47.920688], [-97.09884, 47.92067], [-97.098823, 47.920653], [-97.098806, 47.920636], [-97.098788, 47.920619], [-97.09877, 47.920603], [-97.098751, 47.920586], [-97.098732, 47.92057], [-97.098713, 47.920554], [-97.098693, 47.920539], [-97.098673, 47.920523], [-97.098659, 47.920513], [-97.098638, 47.920498], [-97.098617, 47.920483], [-97.098595, 47.920469], [-97.098573, 47.920455], [-97.098551, 47.920441], [-97.098528, 47.920427], [-97.098505, 47.920413], [-97.098482, 47.9204], [-97.098458, 47.920387], [-97.098434, 47.920375], [-97.098409, 47.920362], [-97.098384, 47.92035], [-97.098359, 47.920338], [-97.098334, 47.920327], [-97.098308, 47.920316], [-97.098282, 47.920305], [-97.098256, 47.920294], [-97.098229, 47.920284], [-97.098203, 47.920274], [-97.098176, 47.920264], [-97.098148, 47.920255], [-97.098121, 47.920246], [-97.098093, 47.920237], [-97.098065, 47.920229], [-97.098037, 47.920221], [-97.098009, 47.920213], [-97.09798, 47.920206], [-97.097951, 47.920199], [-97.097922, 47.920192], [-97.097893, 47.920186], [-97.097897, 47.918805], [-97.098959, 47.918807], [-97.098958, 47.920814]]]}, "properties": {"id": "PAR-038", "name": "4770 TECHNOLOGY CIR", "owner_name": "UND AEROSPACE FOUNDATION", "owner_class": "aerospace_foundation", "parcel": "44311100502", "address": "4770 TECHNOLOGY CIR", "land_use": "Commercial", "acres": 3.5, "legal": "4770 TECHNOLOGY CIRCLE LOT C (REPLAT L5) BLK 1", "source": "City of Grand Forks Parcel Owner Info Active", "needs_tracing": false, "site": "main", "notes": ""}}, {"type": "Feature", "geometry": {"type": "Polygon", "coordinates": [[[-97.09049, 47.903705], [-97.090546, 47.903679], [-97.090966, 47.903493], [-97.091055, 47.903453], [-97.091075, 47.903444], [-97.092706, 47.903444], [-97.092703, 47.903855], [-97.090051, 47.903855], [-97.090052, 47.903718], [-97.090459, 47.903718], [-97.09049, 47.903705]]]}, "properties": {"id": "PAR-039", "name": "NO", "owner_name": "STATE OF NORTH DAKOTA FOR THE USE", "owner_class": "und_state", "parcel": "44114500300", "address": "NO", "land_use": "Exempt", "acres": 1.84, "legal": "NO ADDRESS LOT 2   BLOCK 2", "source": "City of Grand Forks Parcel Owner Info Active", "needs_tracing": false, "site": "main", "notes": ""}}, {"type": "Feature", "geometry": {"type": "Polygon", "coordinates": [[[-97.052911, 47.936717], [-97.053032, 47.93672], [-97.053045, 47.936724], [-97.053043, 47.936724], [-97.053482, 47.937215], [-97.055796, 47.939806], [-97.055797, 47.939928], [-97.055797, 47.939928], [-97.055801, 47.940333], [-97.055445, 47.939928], [-97.054974, 47.939406], [-97.054686, 47.939073], [-97.054265, 47.938599], [-97.054046, 47.938268], [-97.053897, 47.938009], [-97.053728, 47.937715], [-97.052911, 47.936717]]]}, "properties": {"id": "PAR-040", "name": "UNPLATTED", "owner_name": "STATE OF NORTH DAKOTA ACTING", "owner_class": "und_state", "parcel": "44311333413", "address": "UNPLATTED", "land_use": "Exempt", "acres": 2.33, "legal": "UNPLATTED PARTS-FALCONER TWP A TRACT OF APPROX 129,850 SQ' IN SE1/4 33-152-50", "source": "City of Grand Forks Parcel Owner Info Active", "needs_tracing": false, "site": "main", "notes": ""}}, {"type": "Feature", "geometry": {"type": "Polygon", "coordinates": [[[-97.073755, 47.922415], [-97.075305, 47.922416], [-97.075306, 47.924217], [-97.074001, 47.924216], [-97.074001, 47.923463], [-97.073997, 47.923426], [-97.073989, 47.92339], [-97.073977, 47.923354], [-97.07396, 47.923319], [-97.073938, 47.923285], [-97.073913, 47.923253], [-97.073883, 47.923222], [-97.073849, 47.923193], [-97.073707, 47.923079], [-97.073688, 47.923063], [-97.073671, 47.923046], [-97.073656, 47.923028], [-97.073644, 47.923009], [-97.073633, 47.922989], [-97.073625, 47.92297], [-97.073619, 47.922949], [-97.073616, 47.922929], [-97.073615, 47.922908], [-97.073612, 47.922415], [-97.073755, 47.922415]]]}, "properties": {"id": "PAR-041", "name": "3251 5TH AVE N", "owner_name": "STATE OF NORTH DAKOTA &", "owner_class": "und_state", "parcel": "44310500100", "address": "3251 5TH AVE N", "land_use": "Exempt", "acres": 0.0, "legal": "3251 5TH AVE N, 430 PRINCETON ST, 425 OXFORD ST, 350 PRINCETON ST LOT 1 BLOCK 1 A REPLAT OF LOTS 2 AND 3, BLOCK 12, AND THE EASTERLY 320' OF BLOCK 13, UNIVERSITY PLACE ADDITION AND LOTS A & B, BLOCK", "source": "City of Grand Forks Parcel Owner Info Active", "needs_tracing": false, "site": "main", "notes": ""}}, {"type": "Feature", "geometry": {"type": "Polygon", "coordinates": [[[-97.072315, 47.922414], [-97.073367, 47.922415], [-97.073369, 47.922758], [-97.07337, 47.922908], [-97.073373, 47.922945], [-97.073381, 47.922981], [-97.073394, 47.923017], [-97.073411, 47.923052], [-97.073432, 47.923085], [-97.073458, 47.923118], [-97.073488, 47.923149], [-97.073522, 47.923178], [-97.073664, 47.923291], [-97.073683, 47.923308], [-97.0737, 47.923326], [-97.073716, 47.923345], [-97.073728, 47.923364], [-97.073739, 47.923384], [-97.073747, 47.923405], [-97.073752, 47.923425], [-97.073754, 47.923436], [-97.073755, 47.923446], [-97.073756, 47.923456], [-97.073756, 47.923458], [-97.073756, 47.923461], [-97.073756, 47.923463], [-97.073757, 47.924216], [-97.072321, 47.924215], [-97.072321, 47.924215], [-97.072321, 47.92421], [-97.072319, 47.923424], [-97.072318, 47.922866], [-97.072317, 47.922757], [-97.072315, 47.922414]]]}, "properties": {"id": "PAR-042", "name": "430 OXFORD ST", "owner_name": "STATE OF NORTH DAKOTA &", "owner_class": "und_state", "parcel": "44310500200", "address": "430 OXFORD ST", "land_use": "Exempt", "acres": 0.0, "legal": "370, 400, 430 OXFORD ST, 319 HARVARD ST, 3100 UNIVERSITY AVE LOT 1 BLOCK 2 A REPLAT OF LOTS 2 AND 3, BLOCK 12, AND THE EASTERLY 320' OF BLOCK 13, UNIVERSITY PLACE ADDITION AND LOTS A & B, BLOCK 12, ", "source": "City of Grand Forks Parcel Owner Info Active", "needs_tracing": false, "site": "main", "notes": ""}}, {"type": "Feature", "geometry": {"type": "Polygon", "coordinates": [[[-97.067935, 47.922411], [-97.068184, 47.922411], [-97.068186, 47.922795], [-97.067938, 47.922795], [-97.06774, 47.922795], [-97.067737, 47.922411], [-97.067935, 47.922411]]]}, "properties": {"id": "PAR-043", "name": "2800 UNIVERSITY AVE", "owner_name": "STATE OF NORTH DAKOTA &", "owner_class": "und_state", "parcel": "44310600100", "address": "2800 UNIVERSITY AVE", "land_use": "Exempt", "acres": 0.0, "legal": "2800 UNIVERSITY AVE LOT A BLOCK 1 BEING A REPLAT OF THE WEST HALF OF LOT 13, ALL OF LOT 14, BLOCK 1, AND ALL OF LOT 10, BLOCK 2, UNIVERSITY PLACE ADDITION (INCLUDING VACATED CORNELL STREET ADJACENT ", "source": "City of Grand Forks Parcel Owner Info Active", "needs_tracing": false, "site": "main", "notes": ""}}, {"type": "Feature", "geometry": {"type": "Polygon", "coordinates": [[[-97.06769, 47.922411], [-97.067737, 47.922411], [-97.06774, 47.922795], [-97.067693, 47.922795], [-97.067444, 47.922795], [-97.067332, 47.922795], [-97.067329, 47.922411], [-97.06769, 47.922411]]]}, "properties": {"id": "PAR-044", "name": "2724 UNIVERSITY AVE", "owner_name": "STATE OF NORTH DAKOTA &", "owner_class": "und_state", "parcel": "44310600200", "address": "2724 UNIVERSITY AVE", "land_use": "Exempt", "acres": 0.0, "legal": "2724 UNIVERSITY AVE LOT B BLOCK 1 BEING A REPLAT OF THE WEST HALF OF LOT 13, ALL OF LOT 14, BLOCK 1, AND ALL OF LOT 10, BLOCK 2, UNIVERSITY PLACE ADDITION (INCLUDING VACATED CORNELL STREET ADJACENT ", "source": "City of Grand Forks Parcel Owner Info Active", "needs_tracing": false, "site": "main", "notes": ""}}, {"type": "Feature", "geometry": {"type": "Polygon", "coordinates": [[[-97.065978, 47.919311], [-97.06599, 47.921106], [-97.065213, 47.921103], [-97.065212, 47.920934], [-97.065249, 47.920908], [-97.065283, 47.92088], [-97.065313, 47.92085], [-97.065339, 47.920818], [-97.065361, 47.920785], [-97.065379, 47.920751], [-97.065392, 47.920716], [-97.065401, 47.920681], [-97.065395, 47.919745], [-97.065387, 47.919709], [-97.065373, 47.919673], [-97.065355, 47.919639], [-97.065333, 47.919605], [-97.065307, 47.919573], [-97.065276, 47.919542], [-97.065242, 47.919513], [-97.065204, 47.919487], [-97.065163, 47.919463], [-97.065118, 47.919441], [-97.065072, 47.919422], [-97.065071, 47.919311], [-97.065978, 47.919311]]]}, "properties": {"id": "PAR-045", "name": "2625 2ND AVE N", "owner_name": "UND ALUMNI ASSOCIATION AND", "owner_class": "alumni_foundation", "parcel": "44234300200", "address": "2625 2ND AVE N", "land_use": "Commercial", "acres": 0.0, "legal": "2625 2ND AVE N LOT 2 BLOCK 1 A REPLAT OF BLOCKS 2, 3, AND 4, UNIVERSITY PARK ADDITION, AND PARTS OF VACATED AVENUES AND ALLEY WAYS SHOWN WITHIN AND AN UNPLATTED PORTION OF THE SOUTH HALF OF THE SOUT", "source": "City of Grand Forks Parcel Owner Info Active", "needs_tracing": false, "site": "main", "notes": ""}}, {"type": "Feature", "geometry": {"type": "Polygon", "coordinates": [[[-97.065974, 47.918674], [-97.065974, 47.918674], [-97.065978, 47.919311], [-97.065071, 47.919311], [-97.065072, 47.919422], [-97.065118, 47.919441], [-97.065163, 47.919463], [-97.065204, 47.919487], [-97.065242, 47.919513], [-97.065276, 47.919542], [-97.065307, 47.919573], [-97.065333, 47.919605], [-97.065355, 47.919639], [-97.065373, 47.919673], [-97.065387, 47.919709], [-97.065395, 47.919745], [-97.065401, 47.920681], [-97.065392, 47.920716], [-97.065379, 47.920751], [-97.065361, 47.920785], [-97.065339, 47.920818], [-97.065313, 47.92085], [-97.065283, 47.92088], [-97.065249, 47.920908], [-97.065212, 47.920934], [-97.065213, 47.921103], [-97.062548, 47.921094], [-97.059787, 47.92109], [-97.059789, 47.920707], [-97.059789, 47.920652], [-97.059791, 47.920268], [-97.059791, 47.920158], [-97.059792, 47.920049], [-97.059793, 47.919665], [-97.059793, 47.91961], [-97.059795, 47.919226], [-97.059795, 47.919117], [-97.059796, 47.919007], [-97.059797, 47.918659], [-97.061225, 47.918663], [-97.062561, 47.918666], [-97.06345, 47.918668], [-97.065974, 47.918674], [-97.065974, 47.918674]]]}, "properties": {"id": "PAR-046", "name": "15 N 23RD ST", "owner_name": "NORTH DAKOTA STATE BOARD OF HIGHER", "owner_class": "und_state", "parcel": "44234300100", "address": "15 N 23RD ST", "land_use": "Exempt", "acres": 0.0, "legal": "15 N 23RD ST, 2501 2ND AVE N, 2623 2ND AVE N LOT 1 BLOCK 1 A REPLAT OF BLOCKS 2, 3, AND 4, UNIVERSITY PARK ADDITION, AND PARTS OF VACATED AVENUES AND ALLEY WAYS SHOWN WITHIN AND AN UNPLATTED PORTION", "source": "City of Grand Forks Parcel Owner Info Active", "needs_tracing": false, "site": "main", "notes": ""}}, {"type": "Feature", "geometry": {"type": "MultiPolygon", "coordinates": [[[[-97.067839, 47.929537], [-97.067836, 47.929369], [-97.067836, 47.929369], [-97.07047, 47.929369], [-97.070496, 47.932737], [-97.06901, 47.932737], [-97.069009, 47.932819], [-97.066977, 47.932819], [-97.066929, 47.930134], [-97.066929, 47.930134], [-97.067421, 47.930134], [-97.06785, 47.930135], [-97.067839, 47.929537]]], [[[-97.070905, 47.932737], [-97.070876, 47.929095], [-97.06691, 47.929093], [-97.066852, 47.925903], [-97.077293, 47.925911], [-97.077305, 47.927311], [-97.077296, 47.928544], [-97.077299, 47.9289], [-97.077303, 47.929312], [-97.077304, 47.929493], [-97.07732, 47.930625], [-97.077325, 47.931408], [-97.077332, 47.932736], [-97.07268, 47.932736], [-97.072679, 47.932668], [-97.071966, 47.932668], [-97.071966, 47.932736], [-97.070905, 47.932737]]]]}, "properties": {"id": "PAR-047", "name": "1301 N COLUMBIA RD", "owner_name": "UNIVERSITY OF NORTH DAKOTA", "owner_class": "und_state", "parcel": "44313800100", "address": "1301 N COLUMBIA RD", "land_use": "Exempt", "acres": 0.0, "legal": "1301 N COLUMBIA RD LOT 1 BLK 1", "source": "City of Grand Forks Parcel Owner Info Active", "needs_tracing": false, "site": "main", "notes": ""}}, {"type": "Feature", "geometry": {"type": "MultiPolygon", "coordinates": [[[[-97.067839, 47.929537], [-97.067836, 47.929369], [-97.067836, 47.929369], [-97.07047, 47.929369], [-97.070496, 47.932737], [-97.06901, 47.932737], [-97.069009, 47.932819], [-97.066977, 47.932819], [-97.066929, 47.930134], [-97.066929, 47.930134], [-97.067421, 47.930134], [-97.06785, 47.930135], [-97.067839, 47.929537]]], [[[-97.070905, 47.932737], [-97.070876, 47.929095], [-97.06691, 47.929093], [-97.066852, 47.925903], [-97.077293, 47.925911], [-97.077305, 47.927311], [-97.077296, 47.928544], [-97.077303, 47.929376], [-97.07733, 47.932736], [-97.07268, 47.932736], [-97.072679, 47.932668], [-97.071966, 47.932668], [-97.071966, 47.932736], [-97.070905, 47.932737]]]]}, "properties": {"id": "PAR-048", "name": "2755 12TH AVE N", "owner_name": "NORTH DAKOTA STATE BOARD OF HIGHER", "owner_class": "und_state", "parcel": "44999100211", "address": "2755 12TH AVE N", "land_use": "Commercial", "acres": 0.0, "legal": "2755 12TH AVE N LEASEHOLD INTEREST IN LOT  PART OF LOT 1 BLK 1", "source": "City of Grand Forks Parcel Owner Info Active", "needs_tracing": false, "site": "main", "notes": ""}}, {"type": "Feature", "geometry": {"type": "Polygon", "coordinates": [[[-97.069961, 47.918621], [-97.07281, 47.918626], [-97.072787, 47.91863], [-97.072763, 47.918634], [-97.072739, 47.918638], [-97.072226, 47.918734], [-97.072186, 47.918741], [-97.072146, 47.918748], [-97.072105, 47.918754], [-97.072105, 47.918754], [-97.072031, 47.918754], [-97.071237, 47.918752], [-97.070516, 47.91875], [-97.07001, 47.918749], [-97.070005, 47.918749], [-97.069961, 47.918749], [-97.069961, 47.918749], [-97.069961, 47.918723], [-97.069961, 47.918621]]]}, "properties": {"id": "PAR-049", "name": "3041 CAMPUS RD", "owner_name": "NORTH DAKOTA STATE BOARD OF HIGHER", "owner_class": "und_state", "parcel": "44124500100", "address": "3041 CAMPUS RD", "land_use": "Exempt", "acres": 0.0, "legal": "3041 CAMPUS RD LOT BLOCK 1", "source": "City of Grand Forks Parcel Owner Info Active", "needs_tracing": false, "site": "main", "notes": ""}}, {"type": "Feature", "geometry": {"type": "Polygon", "coordinates": [[[-97.0766, 47.924492], [-97.076319, 47.924372], [-97.076201, 47.924254], [-97.076206, 47.924075], [-97.076277, 47.923926], [-97.076536, 47.923637], [-97.077287, 47.923637], [-97.07729, 47.924219], [-97.077291, 47.924674], [-97.076886, 47.924673], [-97.0766, 47.924492]]]}, "properties": {"id": "PAR-050", "name": "454 STANFORD RD", "owner_name": "STATE OF NORTH DAKOTA &", "owner_class": "und_state", "parcel": "44314000100", "address": "454 STANFORD RD", "land_use": "Exempt", "acres": 0.0, "legal": "454 STANFORD RD LOT BLOCK 1", "source": "City of Grand Forks Parcel Owner Info Active", "needs_tracing": false, "site": "main", "notes": ""}}, {"type": "Feature", "geometry": {"type": "Polygon", "coordinates": [[[-97.075552, 47.924673], [-97.076886, 47.924673], [-97.077291, 47.924674], [-97.077293, 47.924766], [-97.077294, 47.924948], [-97.077295, 47.925222], [-97.077296, 47.925496], [-97.077297, 47.925664], [-97.075553, 47.925632], [-97.075552, 47.925495], [-97.075552, 47.925221], [-97.075552, 47.924947], [-97.075552, 47.924673]]]}, "properties": {"id": "PAR-051", "name": "PARKING LOT", "owner_name": "STATE OF NORTH DAKOTA", "owner_class": "und_state", "parcel": "44310409801", "address": "PARKING LOT", "land_use": "Exempt", "acres": 0.0, "legal": "PARKING LOT LOTS 1,2,3,4 B10", "source": "City of Grand Forks Parcel Owner Info Active", "needs_tracing": false, "site": "main", "notes": ""}}, {"type": "Feature", "geometry": {"type": "Polygon", "coordinates": [[[-97.075551, 47.924492], [-97.0766, 47.924492], [-97.076886, 47.924673], [-97.075552, 47.924673], [-97.075551, 47.924492]]]}, "properties": {"id": "PAR-052", "name": "517 PRINCETON ST", "owner_name": "STATE OF NORTH DAKOTA &", "owner_class": "und_state", "parcel": "44314000200", "address": "517 PRINCETON ST", "land_use": "Exempt", "acres": 0.0, "legal": "517 PRINCETON ST LOT 2 BLOCK 1", "source": "City of Grand Forks Parcel Owner Info Active", "needs_tracing": false, "site": "main", "notes": ""}}, {"type": "Feature", "geometry": {"type": "Polygon", "coordinates": [[[-97.075551, 47.924075], [-97.076206, 47.924075], [-97.076201, 47.924254], [-97.076319, 47.924372], [-97.0766, 47.924492], [-97.075551, 47.924492], [-97.075551, 47.924075]]]}, "properties": {"id": "PAR-053", "name": "505 PRINCETON ST", "owner_name": "STATE OF NORTH DAKOTA &", "owner_class": "und_state", "parcel": "44314000300", "address": "505 PRINCETON ST", "land_use": "Exempt", "acres": 0.0, "legal": "505 PRINCETON ST LOT 3 BLOCK 1", "source": "City of Grand Forks Parcel Owner Info Active", "needs_tracing": false, "site": "main", "notes": ""}}, {"type": "Feature", "geometry": {"type": "Polygon", "coordinates": [[[-97.076536, 47.923637], [-97.076277, 47.923926], [-97.076206, 47.924075], [-97.075551, 47.924075], [-97.07555, 47.923636], [-97.076536, 47.923637]]]}, "properties": {"id": "PAR-054", "name": "421 PRINCETON ST", "owner_name": "NORTH DAKOTA DELTA UPSILON ALUMNI", "owner_class": "greek", "parcel": "44314000400", "address": "421 PRINCETON ST", "land_use": "Commercial", "acres": 0.0, "legal": "421 PRINCETON ST LOT 4 BLOCK 1", "source": "City of Grand Forks Parcel Owner Info Active", "needs_tracing": false, "site": "main", "notes": ""}}, {"type": "Feature", "geometry": {"type": "Polygon", "coordinates": [[[-97.048161, 47.892176], [-97.048159, 47.893054], [-97.046936, 47.893052], [-97.046937, 47.892449], [-97.046938, 47.892175], [-97.048161, 47.892176]]]}, "properties": {"id": "PAR-055", "name": "1501 28TH AVE S", "owner_name": "STATE OF NORTH DAKOTA FOR BENEFIT OF", "owner_class": "und_state", "parcel": "44150100104", "address": "1501 28TH AVE S", "land_use": "Exempt", "acres": 3.31, "legal": "1501 28TH AVE S LOTS D, E, F    BLK 1 (L-D,E&F BEING REPLAT OF L2, B1", "source": "City of Grand Forks Parcel Owner Info Active", "needs_tracing": false, "site": "main", "notes": ""}}, {"type": "Feature", "geometry": {"type": "Polygon", "coordinates": [[[-97.048161, 47.892176], [-97.048772, 47.892177], [-97.04877, 47.893054], [-97.048159, 47.893054], [-97.048161, 47.892176]]]}, "properties": {"id": "PAR-056", "name": "1541 28TH AVE S", "owner_name": "STATE OF NORTH DAKOTA FOR BENEFIT OF", "owner_class": "und_state", "parcel": "44150100105", "address": "1541 28TH AVE S", "land_use": "Exempt", "acres": 3.31, "legal": "1541 28TH AVE S LOT K      BLK 1 (L-D,E&F BEING REPLAT OF L2, B1", "source": "City of Grand Forks Parcel Owner Info Active", "needs_tracing": false, "site": "main", "notes": ""}}, {"type": "Feature", "geometry": {"type": "Polygon", "coordinates": [[[-97.065917, 47.921325], [-97.066115, 47.921325], [-97.066116, 47.921475], [-97.065918, 47.921474], [-97.065917, 47.921325]]]}, "properties": {"id": "PAR-057", "name": "2630 2ND AVE N", "owner_name": "NORTH DAKOTA STATE BOARD OF HIGHER", "owner_class": "und_state", "parcel": "44234600300", "address": "2630 2ND AVE N", "land_use": "Exempt", "acres": 0.0, "legal": "2630 2ND AVE N LOT 3 BLOCK 1", "source": "City of Grand Forks Parcel Owner Info Active", "needs_tracing": false, "site": "main", "notes": ""}}, {"type": "Feature", "geometry": {"type": "Polygon", "coordinates": [[[-97.063919, 47.921318], [-97.065917, 47.921325], [-97.065918, 47.921474], [-97.066116, 47.921475], [-97.06612, 47.922148], [-97.063918, 47.92214], [-97.063919, 47.921318]]]}, "properties": {"id": "PAR-058", "name": "2600 2ND AVE N", "owner_name": "UND ALUMNI ASSOCIATION AND FOUNDATION", "owner_class": "alumni_foundation", "parcel": "44234600100", "address": "2600 2ND AVE N", "land_use": "Commercial", "acres": 0.0, "legal": "2600 2ND AVE N LOT 1 BLOCK 1", "source": "City of Grand Forks Parcel Owner Info Active", "needs_tracing": false, "site": "main", "notes": ""}}, {"type": "Feature", "geometry": {"type": "Polygon", "coordinates": [[[-97.063919, 47.921318], [-97.063918, 47.92214], [-97.062707, 47.922136], [-97.06271, 47.921314], [-97.063919, 47.921318]]]}, "properties": {"id": "PAR-059", "name": "2503 UNIVERSITY AVE", "owner_name": "UND ALUMNI ASSOCIATION AND FOUNDATION", "owner_class": "alumni_foundation", "parcel": "44234600200", "address": "2503 UNIVERSITY AVE", "land_use": "Commercial", "acres": 0.0, "legal": "2503 UNIVERSITY AVE LOT 2 BLOCK 1", "source": "City of Grand Forks Parcel Owner Info Active", "needs_tracing": false, "site": "main", "notes": ""}}]}